[{"OBJECT_NAME":"UHETSAT","OBJECT_ID":"2023-185E","EPOCH":"2026-03-09T22:39:26.455680","MEAN_MOTION":15.29797662,"ECCENTRICITY":0.00118435,"INCLINATION":97.3584,"RA_OF_ASC_NODE":137.3576,"ARG_OF_PERICENTER":307.7346,"MEAN_ANOMALY":52.2821,"EPHEMERIS_TYPE":0,"CLASSIFICATION_TYPE":"U","NORAD_CAT_ID":58466,"ELEMENT_SET_NO":999,"REV_AT_EPOCH":12611,"BSTAR":0.00030513019,"MEAN_MOTION_DOT":8.749e-5,"MEAN_MOTION_DDOT":0},{"OBJECT_NAME":"STARLINK-32790","OBJECT_ID":"2025-034V","EPOCH":"2026-03-09T21:23:00.497472","MEAN_MOTION":15.30199536,"ECCENTRICITY":8.896e-5,"INCLINATION":53.1569,"RA_OF_ASC_NODE":257.4706,"ARG_OF_PERICENTER":103.4612,"MEAN_ANOMALY":256.6488,"EPHEMERIS_TYPE":0,"CLASSIFICATION_TYPE":"U","NORAD_CAT_ID":63048,"ELEMENT_SET_NO":999,"REV_AT_EPOCH":5911,"BSTAR":0.0011224324,"MEAN_MOTION_DOT":0.00033031,"MEAN_MOTION_DDOT":0}]
